VINDLER 2.1             
1 68488U 26067CA  26204.32443139  .00001060  00000+0  10989-3 0  9994
2 68488  97.7593 162.0178 0000614  55.4937 304.6340 14.92070416 17119
LEMUR-2-CARROLLEMO      
1 68489U 26067CB  26203.81811831  .00003122  00000+0  31477-3 0  9992
2 68489  97.7547 161.3970 0001527   8.4582 351.6662 14.91833511 17031
MIMIR 1                 
1 68490U 26067CC  26204.85386528  .00001790  00000+0  18709-3 0  9991
2 68490  97.7631 162.4550 0000455 298.0739  62.0433 14.90900828 17183
LEMUR-2-DELOITTE-2      
1 68491U 26067CD  26204.36517868  .00005885  00000+0  58870-3 0  9993
2 68491  97.7575 161.9495 0001358 333.2273  26.8875 14.91804435 17110
LEMUR-2-EMARCHIA        
1 68492U 26067CE  26204.82693080  .00005836  00000+0  58061-3 0  9994
2 68492  97.7573 162.4241 0001944 325.2785  34.8307 14.92026474 17180
LEMUR-2-POLO-11         
1 68493U 26067CF  26204.35617330  .00006244  00000+0  62042-3 0  9995
2 68493  97.7662 162.0855 0001665 262.4090  97.6940 14.92053410 17111
ICEYE-X71               
1 68494U 26067CG  26204.83335647  .00072331  00000+0  69659-2 0  9997
2 68494  97.7617 162.5095 0000751 275.9507 152.2229 14.92595369  5771
GRAVITAS                
1 68495U 26067CH  26204.83335647  .00038096  00000+0  52241-2 0  9997
2 68495  97.7543 159.7372 0010605 204.1724 170.8636 14.78246890  4885
ICEYE-X73               
1 68496U 26067CJ  26204.84420203  .00002447  00000+0  24461-3 0  9997
2 68496  97.7627 162.6147 0002165 134.8118 225.3277 14.92379964 17190
ICEYE-X75               
1 68497U 26067CK  26204.84973536  .00001064  00000+0  10994-3 0  9990
2 68497  97.7612 162.5833 0002144 130.7532 229.3874 14.92188888 17198
IO-1                    
1 68498U 26067CL  26204.83065160  .00001723  00000+0  17675-3 0  9990
2 68498  97.7567 162.3954 0001468 348.7466  11.3719 14.91701706 17180
SERT3                   
1 68499U 26067CM  26204.35539052  .00002483  00000+0  25283-3 0  9992
2 68499  97.7599 161.9860 0000679  41.5612 318.5658 14.91626654 17116
ICEYE-X74               
1 68500U 26067CN  26204.34933003  .00002102  00000+0  21379-3 0  9998
2 68500  97.7638 162.0455 0000342 236.0047 124.1140 14.91820341 17111
TRANSPORTER-16 OBJECT CP
1 68501U 26067CP  26204.36416505  .00001707  00000+0  17569-3 0  9990
2 68501  97.7655 162.0444 0001642 271.0019  89.1012 14.91593329 17112
ICEYE-X76               
1 68502U 26067CQ  26204.81502274  .00000851  00000+0  90021-4 0  9994
2 68502  97.7645 162.5224 0000639 206.2099 153.9088 14.91762875 17180
FLYLAB2                 
1 68503U 26067CR  26204.34702095  .00001718  00000+0  17951-3 0  9999
2 68503  97.7589 161.8282 0004185 315.8428  44.2456 14.90969118 17108
ICEYE-X72               
1 68504U 26067CS  26204.83335647  .00079132  00000+0  66371-2 0  9993
2 68504  97.7633 162.7476 0001096 149.5788  71.5076 14.97989946  5839
GEMS2-AMETHYST          
1 68505U 26067CT  26204.32940479  .00003078  00000+0  31395-3 0  9998
2 68505  97.7618 161.9014 0003799 295.5125  64.5701 14.91381912 17104
AEPEX                   
1 68506U 26067CU  26204.81436748  .00008033  00000+0  38090-3 0  9997
2 68506  97.4527 162.8024 0002401   0.4382 359.6854 15.19549895 17383
CAMOES                  
1 68507U 26067CV  26204.32999503  .00008300  00000+0  40243-3 0  9997
2 68507  97.4653 162.3502 0001839   4.4444 355.6806 15.18767170 17400
STARLINK-37262          
1 68508U 26068A   26204.28183838  .00022053  00000+0  66201-3 0  9993
2 68508  53.1578 210.8871 0000960  88.9572 271.1541 15.34395350 17826
STARLINK-36292          
1 68509U 26068B   26204.43413205  .00029276  00000+0  87406-3 0  9999
2 68509  53.1573 215.5087 0001137  69.0248 291.0877 15.34405413 17779
STARLINK-37260          
1 68510U 26068C   26204.29073997  .00023432  00000+0  70262-3 0  9995
2 68510  53.1586 214.5708 0001270  97.7614 262.3533 15.34393384 17770
STARLINK-37280          
1 68511U 26068D   26204.51082183  .00019779  00000+0  59504-3 0  9993
2 68511  53.1554 209.4767 0001000  81.2965 278.8151 15.34396968 17861
STARLINK-37286          
1 68512U 26068E   26204.29858370  .00019595  00000+0  58976-3 0  9996
2 68512  53.1568 210.2920 0000924  74.6898 285.4207 15.34389714 17837
STARLINK-36250          
1 68513U 26068F   26204.37321738  .00021879  00000+0  65776-3 0  9993
2 68513  53.1572 215.8452 0001103  83.4568 276.6560 15.34352861 17765
STARLINK-37251          
1 68514U 26068G   26204.28922042  .00025062  00000+0  75056-3 0  9999
2 68514  53.1583 216.7559 0001047  81.1909 278.9212 15.34393515 17745
STARLINK-36293          
1 68515U 26068H   26204.41317865  .00018532  00000+0  55840-3 0  9999
2 68515  53.1563 216.0945 0001017  87.9529 272.1590 15.34391508 17762
STARLINK-36290          
1 68516U 26068J   26204.31437530  .00012378  00000+0  37700-3 0  9998
2 68516  53.1565 216.1794 0000864  75.9816 284.1283 15.34389368 17755
STARLINK-36298          
1 68517U 26068K   26204.47200199  .00018536  00000+0  55866-3 0  9990
2 68517  53.1563 215.7687 0000707 110.1779 249.9299 15.34382800 17778
