OBJECT_NAME,OBJECT_ID,EPOCH,MEAN_MOTION,ECCENTRICITY,INCLINATION,RA_OF_ASC_NODE,ARG_OF_PERICENTER,MEAN_ANOMALY,EPHEMERIS_TYPE,CLASSIFICATION_TYPE,NORAD_CAT_ID,ELEMENT_SET_NO,REV_AT_EPOCH,BSTAR,MEAN_MOTION_DOT,MEAN_MOTION_DDOT
VINDLER 2.1,2026-067CA,2026-07-23T07:47:10.872096,14.92070416,.0000614,97.7593,162.0178,55.4937,304.6340,0,U,68488,999,1711,.10989E-3,.106E-4,0
LEMUR-2-CARROLLEMO,2026-067CB,2026-07-22T19:38:05.421984,14.91833511,.00015273,97.7547,161.3970,8.4582,351.6662,0,U,68489,999,1703,.31476815E-3,.3122E-4,0
MIMIR 1,2026-067CC,2026-07-23T20:29:33.960192,14.90900828,.0000455,97.7631,162.4550,298.0739,62.0433,0,U,68490,999,1718,.18709E-3,.179E-4,0
LEMUR-2-DELOITTE-2,2026-067CD,2026-07-23T08:45:51.437952,14.91804435,.0001358,97.7575,161.9495,333.2273,26.8875,0,U,68491,999,1711,.5887E-3,.5885E-4,0
LEMUR-2-EMARCHIA,2026-067CE,2026-07-23T19:50:46.821120,14.92026474,.0001944,97.7573,162.4241,325.2785,34.8307,0,U,68492,999,1718,.58061E-3,.5836E-4,0
LEMUR-2-POLO-11,2026-067CF,2026-07-23T08:32:53.373120,14.92053410,.0001665,97.7662,162.0855,262.4090,97.6940,0,U,68493,999,1711,.62042E-3,.6244E-4,0
ICEYE-X71,2026-067CG,2026-07-23T20:00:01.999008,14.92595369,.0000751,97.7617,162.5095,275.9507,152.2229,0,U,68494,999,577,.69659E-2,.72331E-3,0
GRAVITAS,2026-067CH,2026-07-23T20:00:01.999008,14.78246890,.0010605,97.7543,159.7372,204.1724,170.8636,0,U,68495,999,488,.52241E-2,.38096E-3,0
ICEYE-X73,2026-067CJ,2026-07-23T20:15:39.055392,14.92379964,.0002165,97.7627,162.6147,134.8118,225.3277,0,U,68496,999,1719,.24461E-3,.2447E-4,0
ICEYE-X75,2026-067CK,2026-07-23T20:23:37.135104,14.92188888,.0002144,97.7612,162.5833,130.7532,229.3874,0,U,68497,999,1719,.10994E-3,.1064E-4,0
IO-1,2026-067CL,2026-07-23T19:56:08.298240,14.91701706,.0001468,97.7567,162.3954,348.7466,11.3719,0,U,68498,999,1718,.17675E-3,.1723E-4,0
SERT3,2026-067CM,2026-07-23T08:31:45.740928,14.91626654,.0000679,97.7599,161.9860,41.5612,318.5658,0,U,68499,999,1711,.25283E-3,.2483E-4,0
ICEYE-X74,2026-067CN,2026-07-23T08:23:02.114592,14.91820341,.0000342,97.7638,162.0455,236.0047,124.1140,0,U,68500,999,1711,.21379E-3,.2102E-4,0
TRANSPORTER-16 OBJECT CP,2026-067CP,2026-07-23T08:44:23.860320,14.91593329,.0001642,97.7655,162.0444,271.0019,89.1012,0,U,68501,999,1711,.17569E-3,.1707E-4,0
ICEYE-X76,2026-067CQ,2026-07-23T19:33:37.964736,14.91762875,.0000639,97.7645,162.5224,206.2099,153.9088,0,U,68502,999,1718,.90021E-4,.851E-5,0
FLYLAB2,2026-067CR,2026-07-23T08:19:42.610080,14.90969118,.0004185,97.7589,161.8282,315.8428,44.2456,0,U,68503,999,1710,.17951E-3,.1718E-4,0
ICEYE-X72,2026-067CS,2026-07-23T20:00:01.999008,14.97989946,.0001096,97.7633,162.7476,149.5788,71.5076,0,U,68504,999,583,.66371E-2,.79132E-3,0
GEMS2-AMETHYST,2026-067CT,2026-07-23T07:54:20.573856,14.91381912,.0003799,97.7618,161.9014,295.5125,64.5701,0,U,68505,999,1710,.31395E-3,.3078E-4,0
AEPEX,2026-067CU,2026-07-23T19:32:41.350272,15.19549895,.0002401,97.4527,162.8024,0.4382,359.6854,0,U,68506,999,1738,.3809E-3,.8033E-4,0
CAMOES,2026-067CV,2026-07-23T07:55:11.570592,15.18767170,.0001839,97.4653,162.3502,4.4444,355.6806,0,U,68507,999,1740,.40243E-3,.83E-4,0
STARLINK-37262,2026-068A,2026-07-23T06:45:50.836032,15.34395350,.000096,53.1578,210.8871,88.9572,271.1541,0,U,68508,999,1782,.66201E-3,.22053E-3,0
STARLINK-36292,2026-068B,2026-07-23T10:25:09.009120,15.34405413,.0001137,53.1573,215.5087,69.0248,291.0877,0,U,68509,999,1777,.87406E-3,.29276E-3,0
STARLINK-37260,2026-068C,2026-07-23T06:58:39.933408,15.34393384,.000127,53.1586,214.5708,97.7614,262.3533,0,U,68510,999,1777,.70262E-3,.23432E-3,0
STARLINK-37280,2026-068D,2026-07-23T12:15:35.006112,15.34396968,.0001,53.1554,209.4767,81.2965,278.8151,0,U,68511,999,1786,.59504E-3,.19779E-3,0
STARLINK-37286,2026-068E,2026-07-23T07:09:57.631680,15.34389714,.0000924,53.1568,210.2920,74.6898,285.4207,0,U,68512,999,1783,.58976E-3,.19595E-3,0
STARLINK-36250,2026-068F,2026-07-23T08:57:25.981632,15.34352861,.0001103,53.1572,215.8452,83.4568,276.6560,0,U,68513,999,1776,.65776E-3,.21879E-3,0
STARLINK-37251,2026-068G,2026-07-23T06:56:28.644288,15.34393515,.0001047,53.1583,216.7559,81.1909,278.9212,0,U,68514,999,1774,.75056E-3,.25062E-3,0
STARLINK-36293,2026-068H,2026-07-23T09:54:58.635360,15.34391508,.0001017,53.1563,216.0945,87.9529,272.1590,0,U,68515,999,1776,.5584E-3,.18532E-3,0
STARLINK-36290,2026-068J,2026-07-23T07:32:42.025920,15.34389368,.0000864,53.1565,216.1794,75.9816,284.1283,0,U,68516,999,1775,.377E-3,.12378E-3,0
STARLINK-36298,2026-068K,2026-07-23T11:19:40.971936,15.34382800,.0000707,53.1563,215.7687,110.1779,249.9299,0,U,68517,999,1777,.55866E-3,.18536E-3,0
